[{"OBJECT_NAME":"VSP RF B1","OBJECT_ID":"2024-043AR","EPOCH":"2026-03-09T22:40:29.479296","MEAN_MOTION":15.26694159,"ECCENTRICITY":0.00102608,"INCLINATION":97.5446,"RA_OF_ASC_NODE":204.7052,"ARG_OF_PERICENTER":220.7435,"MEAN_ANOMALY":139.3037,"EPHEMERIS_TYPE":0,"CLASSIFICATION_TYPE":"U","NORAD_CAT_ID":59137,"ELEMENT_SET_NO":999,"REV_AT_EPOCH":11187,"BSTAR":0.00024406819,"MEAN_MOTION_DOT":6.341e-5,"MEAN_MOTION_DDOT":0},{"OBJECT_NAME":"STARLINK-35505","OBJECT_ID":"2025-253L","EPOCH":"2026-03-09T10:08:53.129760","MEAN_MOTION":15.27569144,"ECCENTRICITY":0.00047721,"INCLINATION":42.9995,"RA_OF_ASC_NODE":214.0137,"ARG_OF_PERICENTER":296.1544,"MEAN_ANOMALY":63.8817,"EPHEMERIS_TYPE":0,"CLASSIFICATION_TYPE":"U","NORAD_CAT_ID":66329,"ELEMENT_SET_NO":999,"REV_AT_EPOCH":2020,"BSTAR":0.00089052353,"MEAN_MOTION_DOT":0.00024322,"MEAN_MOTION_DDOT":0}]
